start=new Date('2021-12-19T00:00:00.000Z').valueOf();
sats=[{"MEAN_MOTION":"15.06397537","EPOCH":"2021-12-18T14:00:01.000224","REF_FRAME":"TEME","REV_AT_EPOCH":"3281","CENTER_NAME":"EARTH","SITE":"AFETR","RCS_SIZE":"LARGE","ELEMENT_SET_NO":"999","LAUNCH_DATE":"2021-05-26","GP_ID":"191912437","FILE":"3243374","BSTAR":"-0.00164730000000","OBJECT_ID":"2021-044AW","RA_OF_ASC_NODE":"154.3963","NORAD_CAT_ID":"48682","MEAN_ANOMALY":"157.5035","TLE_LINE1":"1 48682U 21044AW  21352.58334491 -.00024733  00000-0 -16473-2 0  9993","OBJECT_NAME":"STARLINK-2743","OBJECT_TYPE":"PAYLOAD","SEMIMAJOR_AXIS":"6925.356","CLASSIFICATION_TYPE":"U","PERIAPSIS":"545.479","TLE_LINE2":"2 48682  53.0516 154.3963 0002516  89.2928 157.5035 15.06397537 32819","TIME_SYSTEM":"UTC","INCLINATION":"53.0516","DECAY_DATE":null,"COUNTRY_CODE":"US","MEAN_MOTION_DDOT":"0.0000000000000","ARG_OF_PERICENTER":"89.2928","MEAN_ELEMENT_THEORY":"SGP4","PERIOD":"95.592","ECCENTRICITY":"0.00025160","APOAPSIS":"548.964","MEAN_MOTION_DOT":"-0.00024733","EPHEMERIS_TYPE":"0"},{"ECCENTRICITY":"0.00031600","PERIOD":"95.591","MEAN_ELEMENT_THEORY":"SGP4","ARG_OF_PERICENTER":"94.2841","EPHEMERIS_TYPE":"0","MEAN_MOTION_DOT":"-0.00031108","APOAPSIS":"549.370","DECAY_DATE":null,"INCLINATION":"53.0540","MEAN_MOTION_DDOT":"0.0000000000000","COUNTRY_CODE":"US","MEAN_ANOMALY":"312.5086","RA_OF_ASC_NODE":"154.3875","NORAD_CAT_ID":"48683","BSTAR":"-0.00207780000000","FILE":"3243378","OBJECT_ID":"2021-044AX","TIME_SYSTEM":"UTC","PERIAPSIS":"544.993","TLE_LINE2":"2 48683  53.0540 154.3875 0003160  94.2841 312.5086 15.06410522 32814","OBJECT_TYPE":"PAYLOAD","CLASSIFICATION_TYPE":"U","SEMIMAJOR_AXIS":"6925.316","OBJECT_NAME":"STARLINK-2756","TLE_LINE1":"1 48683U 21044AX  21352.58334491 -.00031108  00000-0 -20778-2 0  9991","SITE":"AFETR","CENTER_NAME":"EARTH","EPOCH":"2021-12-18T14:00:01.000224","REV_AT_EPOCH":"3281","REF_FRAME":"TEME","MEAN_MOTION":"15.06410522","GP_ID":"191912866","LAUNCH_DATE":"2021-05-26","ELEMENT_SET_NO":"999","RCS_SIZE":"LARGE"},{"LAUNCH_DATE":"2021-05-26","ELEMENT_SET_NO":"999","RCS_SIZE":"LARGE","GP_ID":"191944275","CENTER_NAME":"EARTH","REV_AT_EPOCH":"3176","EPOCH":"2021-12-18T13:32:24.129888","REF_FRAME":"TEME","MEAN_MOTION":"15.06402470","SITE":"AFETR","TLE_LINE1":"1 48684U 21044AY  21352.56416817  .00001115  00000-0  93788-4 0  9999","OBJECT_NAME":"STARLINK-2741","TIME_SYSTEM":"UTC","TLE_LINE2":"2 48684  53.0552 169.4836 0002816  86.8004 273.3308 15.06402470 31764","PERIAPSIS":"545.256","CLASSIFICATION_TYPE":"U","OBJECT_TYPE":"PAYLOAD","SEMIMAJOR_AXIS":"6925.341","BSTAR":"0.00009378800000","FILE":"3243681","OBJECT_ID":"2021-044AY","MEAN_ANOMALY":"273.3308","RA_OF_ASC_NODE":"169.4836","NORAD_CAT_ID":"48684","MEAN_MOTION_DDOT":"0.0000000000000","COUNTRY_CODE":"US","INCLINATION":"53.0552","DECAY_DATE":null,"EPHEMERIS_TYPE":"0","MEAN_MOTION_DOT":"0.00001115","APOAPSIS":"549.156","PERIOD":"95.592","MEAN_ELEMENT_THEORY":"SGP4","ARG_OF_PERICENTER":"86.8004","ECCENTRICITY":"0.00028160"},{"DECAY_DATE":null,"INCLINATION":"53.0534","COUNTRY_CODE":"US","MEAN_MOTION_DDOT":"0.0000000000000","ECCENTRICITY":"0.00032470","ARG_OF_PERICENTER":"97.8003","MEAN_ELEMENT_THEORY":"SGP4","PERIOD":"95.591","APOAPSIS":"549.414","MEAN_MOTION_DOT":"-0.00025212","EPHEMERIS_TYPE":"0","SITE":"AFETR","MEAN_MOTION":"15.06415861","REV_AT_EPOCH":"359","EPOCH":"2021-12-18T14:00:01.000224","REF_FRAME":"TEME","CENTER_NAME":"EARTH","GP_ID":"191943263","ELEMENT_SET_NO":"999","RCS_SIZE":"LARGE","LAUNCH_DATE":"2021-05-26","NORAD_CAT_ID":"48685","RA_OF_ASC_NODE":"154.3854","MEAN_ANOMALY":"128.9167","FILE":"3243681","OBJECT_ID":"2021-044AZ","BSTAR":"-0.00167870000000","CLASSIFICATION_TYPE":"U","OBJECT_TYPE":"PAYLOAD","SEMIMAJOR_AXIS":"6925.300","TLE_LINE2":"2 48685  53.0534 154.3854 0003247  97.8003 128.9167 15.06415861  3594","PERIAPSIS":"544.916","TIME_SYSTEM":"UTC","TLE_LINE1":"1 48685U 21044AZ  21352.58334491 -.00025212  00000-0 -16787-2 0  9997","OBJECT_NAME":"STARLINK-2751"},{"INCLINATION":"53.0549","DECAY_DATE":null,"COUNTRY_CODE":"US","MEAN_MOTION_DDOT":"0.0000000000000","ARG_OF_PERICENTER":"90.8413","MEAN_ELEMENT_THEORY":"SGP4","PERIOD":"95.592","ECCENTRICITY":"0.00024440","APOAPSIS":"548.903","MEAN_MOTION_DOT":"0.00000798","EPHEMERIS_TYPE":"0","MEAN_MOTION":"15.06401098","EPOCH":"2021-12-18T12:19:24.796416","REF_FRAME":"TEME","REV_AT_EPOCH":"3189","CENTER_NAME":"EARTH","SITE":"AFETR","ELEMENT_SET_NO":"999","RCS_SIZE":"LARGE","LAUNCH_DATE":"2021-05-26","GP_ID":"191943466","FILE":"3243681","OBJECT_ID":"2021-044BA","BSTAR":"0.00007251400000","RA_OF_ASC_NODE":"159.7016","NORAD_CAT_ID":"48686","MEAN_ANOMALY":"269.2856","TLE_LINE1":"1 48686U 21044BA  21352.51348144  .00000798  00000-0  72514-4 0  9993","OBJECT_NAME":"STARLINK-2629","OBJECT_TYPE":"PAYLOAD","CLASSIFICATION_TYPE":"U","SEMIMAJOR_AXIS":"6925.345","PERIAPSIS":"545.518","TLE_LINE2":"2 48686  53.0549 159.7016 0002444  90.8413 269.2856 15.06401098 31891","TIME_SYSTEM":"UTC"},{"OBJECT_NAME":"STARLINK-2627","TLE_LINE1":"1 48687U 21044BB  21352.58334491 -.00029530  00000-0 -19704-2 0  9998","CLASSIFICATION_TYPE":"U","OBJECT_TYPE":"PAYLOAD","SEMIMAJOR_AXIS":"6925.280","TIME_SYSTEM":"UTC","PERIAPSIS":"545.126","TLE_LINE2":"2 48687  53.0544 149.3876 0002916  95.8945 273.3231 15.06422373  3616","BSTAR":"-0.00197040000000","FILE":"3243681","OBJECT_ID":"2021-044BB","RA_OF_ASC_NODE":"149.3876","NORAD_CAT_ID":"48687","MEAN_ANOMALY":"273.3231","LAUNCH_DATE":"2021-05-26","RCS_SIZE":"LARGE","ELEMENT_SET_NO":"999","GP_ID":"191944073","REF_FRAME":"TEME","EPOCH":"2021-12-18T14:00:01.000224","REV_AT_EPOCH":"361","MEAN_MOTION":"15.06422373","CENTER_NAME":"EARTH","SITE":"AFETR","APOAPSIS":"549.164","EPHEMERIS_TYPE":"0","MEAN_MOTION_DOT":"-0.00029530","ARG_OF_PERICENTER":"95.8945","PERIOD":"95.591","MEAN_ELEMENT_THEORY":"SGP4","ECCENTRICITY":"0.00029160","COUNTRY_CODE":"US","MEAN_MOTION_DDOT":"0.0000000000000","INCLINATION":"53.0544","DECAY_DATE":null},{"MEAN_ANOMALY":"259.7695","RA_OF_ASC_NODE":"149.3787","NORAD_CAT_ID":"48688","FILE":"3243681","BSTAR":"0.00006724500000","OBJECT_ID":"2021-044BC","TIME_SYSTEM":"UTC","TLE_LINE2":"2 48688  53.0545 149.3787 0003129 100.3647 259.7695 15.06401257 32046","PERIAPSIS":"545.043","SEMIMAJOR_AXIS":"6925.345","OBJECT_TYPE":"PAYLOAD","CLASSIFICATION_TYPE":"U","TLE_LINE1":"1 48688U 21044BC  21352.58538297  .00000720  00000-0  67245-4 0  9992","OBJECT_NAME":"STARLINK-2742","SITE":"AFETR","CENTER_NAME":"EARTH","REF_FRAME":"TEME","EPOCH":"2021-12-18T14:02:57.088608","REV_AT_EPOCH":"3204","MEAN_MOTION":"15.06401257","GP_ID":"191944680","LAUNCH_DATE":"2021-05-26","RCS_SIZE":"LARGE","ELEMENT_SET_NO":"999","ECCENTRICITY":"0.00031290","PERIOD":"95.592","MEAN_ELEMENT_THEORY":"SGP4","ARG_OF_PERICENTER":"100.3647","EPHEMERIS_TYPE":"0","MEAN_MOTION_DOT":"0.00000720","APOAPSIS":"549.377","DECAY_DATE":null,"INCLINATION":"53.0545","MEAN_MOTION_DDOT":"0.0000000000000","COUNTRY_CODE":"US"},{"OBJECT_NAME":"STARLINK-2617","TLE_LINE1":"1 48689U 21044BD  21352.58334491 -.00026278  00000-0 -17895-2 0  9995","OBJECT_TYPE":"PAYLOAD","SEMIMAJOR_AXIS":"6927.772","CLASSIFICATION_TYPE":"U","TLE_LINE2":"2 48689  53.0533 153.6874 0002772  94.8565 214.2677 15.05609673  3605","PERIAPSIS":"547.716","TIME_SYSTEM":"UTC","OBJECT_ID":"2021-044BD","FILE":"3243681","BSTAR":"-0.00178950000000","RA_OF_ASC_NODE":"153.6874","NORAD_CAT_ID":"48689","MEAN_ANOMALY":"214.2677","ELEMENT_SET_NO":"999","RCS_SIZE":"LARGE","LAUNCH_DATE":"2021-05-26","GP_ID":"191943668","MEAN_MOTION":"15.05609673","EPOCH":"2021-12-18T14:00:01.000224","REF_FRAME":"TEME","REV_AT_EPOCH":"360","CENTER_NAME":"EARTH","SITE":"AFETR","APOAPSIS":"551.557","MEAN_MOTION_DOT":"-0.00026278","EPHEMERIS_TYPE":"0","ARG_OF_PERICENTER":"94.8565","MEAN_ELEMENT_THEORY":"SGP4","PERIOD":"95.642","ECCENTRICITY":"0.00027720","COUNTRY_CODE":"US","MEAN_MOTION_DDOT":"0.0000000000000","INCLINATION":"53.0533","DECAY_DATE":null},{"MEAN_MOTION":"15.06406258","REV_AT_EPOCH":"3182","EPOCH":"2021-12-18T12:43:57.615744","REF_FRAME":"TEME","CENTER_NAME":"EARTH","SITE":"AFETR","RCS_SIZE":"LARGE","ELEMENT_SET_NO":"999","LAUNCH_DATE":"2021-05-26","GP_ID":"191943870","FILE":"3243681","BSTAR":"0.00007475400000","OBJECT_ID":"2021-044BE","RA_OF_ASC_NODE":"164.6262","NORAD_CAT_ID":"48690","MEAN_ANOMALY":"267.9223","OBJECT_NAME":"STARLINK-2740","TLE_LINE1":"1 48690U 21044BE  21352.53052796  .00000832  00000-0  74754-4 0  9992","OBJECT_TYPE":"PAYLOAD","CLASSIFICATION_TYPE":"U","SEMIMAJOR_AXIS":"6925.329","PERIAPSIS":"545.205","TLE_LINE2":"2 48690  53.0549 164.6262 0002872  92.2095 267.9223 15.06406258 31820","TIME_SYSTEM":"UTC","INCLINATION":"53.0549","DECAY_DATE":null,"COUNTRY_CODE":"US","MEAN_MOTION_DDOT":"0.0000000000000","ARG_OF_PERICENTER":"92.2095","MEAN_ELEMENT_THEORY":"SGP4","PERIOD":"95.592","ECCENTRICITY":"0.00028720","APOAPSIS":"549.183","MEAN_MOTION_DOT":"0.00000832","EPHEMERIS_TYPE":"0"},{"MEAN_MOTION":"15.06427245","REF_FRAME":"TEME","REV_AT_EPOCH":"3274","EPOCH":"2021-12-18T14:00:01.000224","CENTER_NAME":"EARTH","SITE":"AFETR","ELEMENT_SET_NO":"999","RCS_SIZE":"LARGE","LAUNCH_DATE":"2021-05-26","GP_ID":"191917440","OBJECT_ID":"2021-044BF","FILE":"3243570","BSTAR":"-0.00193750000000","RA_OF_ASC_NODE":"159.3212","NORAD_CAT_ID":"48691","MEAN_ANOMALY":"342.1511","OBJECT_NAME":"STARLINK-2750","TLE_LINE1":"1 48691U 21044BF  21352.58334491 -.00029046  00000-0 -19375-2 0  9999","OBJECT_TYPE":"PAYLOAD","CLASSIFICATION_TYPE":"U","SEMIMAJOR_AXIS":"6925.265","TLE_LINE2":"2 48691  53.0573 159.3212 0002419  91.9775 342.1511 15.06427245 32749","PERIAPSIS":"545.455","TIME_SYSTEM":"UTC","INCLINATION":"53.0573","DECAY_DATE":null,"COUNTRY_CODE":"US","MEAN_MOTION_DDOT":"0.0000000000000","ARG_OF_PERICENTER":"91.9775","MEAN_ELEMENT_THEORY":"SGP4","PERIOD":"95.590","ECCENTRICITY":"0.00024190","APOAPSIS":"548.805","MEAN_MOTION_DOT":"-0.00029046","EPHEMERIS_TYPE":"0"}];
